2023-104A               
1 57424U 23104A   26065.78279804  .00015492  00000+0  48200-3 0  9993
2 57424  97.2792 135.5625 0009333 122.1915 238.0234 15.33350758146346
STARLINK-33597          
1 62763U 25015F   26068.93068632  .00035555  00000+0  12066-2 0  9995
2 62763  53.1587 321.6485 0001087  78.5301 281.5822 15.30205109 64514
